[
  {
    "name": "STARLINK-3218",
    "noradId": "49725",
    "line1": "1 49725U 21115B   26179.82598350 -.00000424  00000+0 -85225-5 0  9990",
    "line2": "2 49725  53.1605  10.1515 0001254  88.7429 271.3706 15.08822910252317"
  },
  {
    "name": "STARLINK-3242",
    "noradId": "49727",
    "line1": "1 49727U 21115D   26180.50003471  .00072667  00000+0  39183-2 0  9999",
    "line2": "2 49727  53.1607  16.9528 0000526 154.4757 187.8181 15.14132970  5833"
  },
  {
    "name": "STARLINK-3240",
    "noradId": "49728",
    "line1": "1 49728U 21115E   26180.50003471  .00113473  00000+0  52306-2 0  9993",
    "line2": "2 49728  53.1609  16.7744 0000982  58.5843 355.5415 15.19379027  5835"
  },
  {
    "name": "STARLINK-3251",
    "noradId": "49729",
    "line1": "1 49729U 21115F   26179.97590995 -.00001609  00000+0 -83025-4 0  9998",
    "line2": "2 49729  53.1612  19.2596 0001228  87.1545 272.9587 15.08839005252194"
  },
  {
    "name": "STARLINK-3249",
    "noradId": "49730",
    "line1": "1 49730U 21115G   26180.50003471  .00070937  00000+0  35300-2 0  9998",
    "line2": "2 49730  53.1585  17.0295 0001884  98.9939 121.4349 15.16978352  5831"
  },
  {
    "name": "STARLINK-3246",
    "noradId": "49732",
    "line1": "1 49732U 21115J   26180.50003471  .00071333  00000+0  40465-2 0  9999",
    "line2": "2 49732  53.1596  17.1514 0001876  52.6057  46.1479 15.12328074  5832"
  },
  {
    "name": "STARLINK-3252",
    "noradId": "49733",
    "line1": "1 49733U 21115K   26179.93177075  .00000594  00000+0  55410-4 0  9996",
    "line2": "2 49733  53.1614  19.5713 0001349  92.7271 267.3875 15.08831928252180"
  },
  {
    "name": "STARLINK-3238",
    "noradId": "49734",
    "line1": "1 49734U 21115L   26180.50003471  .01274346  00000+0  42227-1 0  9998",
    "line2": "2 49734  53.1608   6.1640 0001643 114.8953  81.8816 15.27872813  5735"
  },
  {
    "name": "STARLINK-3113",
    "noradId": "49735",
    "line1": "1 49735U 21115M   26180.50003471  .00078113  00000+0  38753-2 0  9992",
    "line2": "2 49735  53.1603  16.7437 0001186 101.5819 227.6453 15.17036466  5785"
  },
  {
    "name": "STARLINK-3148",
    "noradId": "49736",
    "line1": "1 49736U 21115N   26180.54356796  .00003186  00000+0  21816-3 0  9999",
    "line2": "2 49736  53.1613   6.7058 0001498 101.3862 258.7298 15.08836803252427"
  },
  {
    "name": "STARLINK-3225",
    "noradId": "49737",
    "line1": "1 49737U 21115P   26180.55092772  .00000293  00000+0  36498-4 0  9991",
    "line2": "2 49737  53.1602   6.7868 0001281  87.2619 272.8519 15.08831016252421"
  },
  {
    "name": "STARLINK-3143",
    "noradId": "49738",
    "line1": "1 49738U 21115Q   26179.85048493  .00023466  00000+0  13859-2 0  9995",
    "line2": "2 49738  53.2157   9.6255 0001887 124.8855 235.2316 15.11421225252320"
  },
  {
    "name": "STARLINK-3155",
    "noradId": "49739",
    "line1": "1 49739U 21115R   26180.50003471  .00036449  00000+0  19064-2 0  9996",
    "line2": "2 49739  53.1594  16.8083 0000754  91.2539 165.0745 15.15540478  5780"
  },
  {
    "name": "STARLINK-3226",
    "noradId": "49740",
    "line1": "1 49740U 21115S   26180.50003471  .01313246  00000+0  43102-1 0  9991",
    "line2": "2 49740  53.1588   6.1297 0001661  78.4130   1.7235 15.28095400  5634"
  },
  {
    "name": "STARLINK-3244",
    "noradId": "49741",
    "line1": "1 49741U 21115T   26180.50003471  .00112472  00000+0  38842-2 0  9995",
    "line2": "2 49741  53.1594   6.0988 0001624  77.7248  59.7321 15.29078347  5584"
  },
  {
    "name": "STARLINK-3202",
    "noradId": "49742",
    "line1": "1 49742U 21115U   26180.51024912  .00020893  00000+0  13207-2 0  9993",
    "line2": "2 49742  53.1606   6.9666 0001520  61.3433 298.7712 15.09010793252415"
  },
  {
    "name": "STARLINK-3239",
    "noradId": "49743",
    "line1": "1 49743U 21115V   26180.50003471  .01280653  00000+0  43858-1 0  9997",
    "line2": "2 49743  53.1590   6.1928 0001556  74.6165 353.7300 15.26765410  5849"
  },
  {
    "name": "STARLINK-3231",
    "noradId": "49744",
    "line1": "1 49744U 21115W   26180.50003471  .01286309  00000+0  42524-1 0  9991",
    "line2": "2 49744  53.1588   6.0562 0001162  70.1106 328.4800 15.27919124  5533"
  },
  {
    "name": "STARLINK-3241",
    "noradId": "49745",
    "line1": "1 49745U 21115X   26180.50003471  .01297137  00000+0  44113-1 0  9999",
    "line2": "2 49745  53.1589   6.2270 0000845  75.8001 293.7626 15.26955168  5780"
  },
  {
    "name": "STARLINK-3233",
    "noradId": "49746",
    "line1": "1 49746U 21115Y   26180.52517198 -.00001101  00000+0 -51095-4 0  9993",
    "line2": "2 49746  53.1613   6.9039 0001124  89.0559 271.0561 15.08825176252411"
  },
  {
    "name": "STARLINK-3247",
    "noradId": "49747",
    "line1": "1 49747U 21115Z   26179.91796805  .00001178  00000+0  92094-4 0  9995",
    "line2": "2 49747  53.1609   9.6327 0001180  88.3580 271.7546 15.08834153252320"
  },
  {
    "name": "STARLINK-3248",
    "noradId": "49748",
    "line1": "1 49748U 21115AA  26179.82961944 -.00002817  00000+0 -15913-3 0  9991",
    "line2": "2 49748  53.1610   9.6039 0001279  87.2166 272.8972 15.08802798252325"
  },
  {
    "name": "STARLINK-3250",
    "noradId": "49749",
    "line1": "1 49749U 21115AB  26180.50003471  .00036583  00000+0  12743-2 0  9993",
    "line2": "2 49749  53.1605   6.1258 0000906  79.8891 261.6907 15.29344112  5787"
  },
  {
    "name": "STARLINK-3236",
    "noradId": "49750",
    "line1": "1 49750U 21115AC  26180.50003471  .00121516  00000+0  42069-2 0  9990",
    "line2": "2 49750  53.1618   6.1502 0001906 116.9139 114.4893 15.28950327  5839"
  },
  {
    "name": "STARLINK-3229",
    "noradId": "49751",
    "line1": "1 49751U 21115AD  26180.52149235 -.00001079  00000+0 -49713-4 0  9990",
    "line2": "2 49751  53.1609   6.8440 0001686  87.9708 272.1476 15.08825105252423"
  },
  {
    "name": "STARLINK-3209",
    "noradId": "49752",
    "line1": "1 49752U 21115AE  26180.50003471  .00088713  00000+0  39705-2 0  9996",
    "line2": "2 49752  53.1597 356.6831 0001801 123.5680 106.8842 15.20538719  5584"
  },
  {
    "name": "STARLINK-3200",
    "noradId": "49753",
    "line1": "1 49753U 21115AF  26179.94004710  .00000398  00000+0  43104-4 0  9993",
    "line2": "2 49753  53.1613   9.5341 0001371  89.3785 270.7364 15.08832517252337"
  },
  {
    "name": "STARLINK-3193",
    "noradId": "49754",
    "line1": "1 49754U 21115AG  26180.50003471  .00056692  00000+0  26181-2 0  9993",
    "line2": "2 49754  53.1602 356.7453 0001598 108.9819 124.7740 15.19682077  5848"
  },
  {
    "name": "STARLINK-3210",
    "noradId": "49755",
    "line1": "1 49755U 21115AH  26180.54821252 -.00000342  00000+0 -34029-5 0  9999",
    "line2": "2 49755  53.1602   6.8457 0001205  96.5533 263.5595 15.08830338252427"
  },
  {
    "name": "STARLINK-3207",
    "noradId": "49756",
    "line1": "1 49756U 21115AJ  26180.50003471  .00089569  00000+0  42935-2 0  9999",
    "line2": "2 49756  53.1595 356.8230 0001889  66.4528  30.9788 15.18162570  5786"
  }
]