OBJECT_NAME,OBJECT_ID,EPOCH,MEAN_MOTION,ECCENTRICITY,INCLINATION,RA_OF_ASC_NODE,ARG_OF_PERICENTER,MEAN_ANOMALY,EPHEMERIS_TYPE,CLASSIFICATION_TYPE,NORAD_CAT_ID,ELEMENT_SET_NO,REV_AT_EPOCH,BSTAR,MEAN_MOTION_DOT,MEAN_MOTION_DDOT
STARLINK-3218,2021-115B,2026-06-28T19:49:24.974400,15.08822910,.00012547,53.1605,10.1515,88.7429,271.3706,0,U,49725,999,25231,-.8522477E-5,-.424E-5,0
STARLINK-3242,2021-115D,2026-06-29T12:00:02.998944,15.14132970,.0000526,53.1607,16.9528,154.4757,187.8181,0,U,49727,999,583,.39183E-2,.72667E-3,0
STARLINK-3240,2021-115E,2026-06-29T12:00:02.998944,15.19379027,.0000982,53.1609,16.7744,58.5843,355.5415,0,U,49728,999,583,.52306E-2,.113473E-2,0
STARLINK-3251,2021-115F,2026-06-28T23:25:18.619680,15.08839005,.00012286,53.1612,19.2596,87.1545,272.9587,0,U,49729,999,25219,-.83024943E-4,-.1609E-4,0
STARLINK-3249,2021-115G,2026-06-29T12:00:02.998944,15.16978352,.0001884,53.1585,17.0295,98.9939,121.4349,0,U,49730,999,583,.353E-2,.70937E-3,0
STARLINK-3246,2021-115J,2026-06-29T12:00:02.998944,15.12328074,.0001876,53.1596,17.1514,52.6057,46.1479,0,U,49732,999,583,.40465E-2,.71333E-3,0
STARLINK-3252,2021-115K,2026-06-28T22:21:44.992800,15.08831928,.00013498,53.1614,19.5713,92.7271,267.3875,0,U,49733,999,25218,.55409791E-4,.594E-5,0
STARLINK-3238,2021-115L,2026-06-29T12:00:02.998944,15.27872813,.0001643,53.1608,6.1640,114.8953,81.8816,0,U,49734,999,573,.42227E-1,.1274346E-1,0
STARLINK-3113,2021-115M,2026-06-29T12:00:02.998944,15.17036466,.0001186,53.1603,16.7437,101.5819,227.6453,0,U,49735,999,578,.38753E-2,.78113E-3,0
STARLINK-3148,2021-115N,2026-06-29T13:02:44.271744,15.08836803,.0001498,53.1613,6.7058,101.3862,258.7298,0,U,49736,999,25242,.21816E-3,.3186E-4,0
STARLINK-3225,2021-115P,2026-06-29T13:13:20.155008,15.08831016,.0001281,53.1602,6.7868,87.2619,272.8519,0,U,49737,999,25242,.36498E-4,.293E-5,0
STARLINK-3143,2021-115Q,2026-06-28T20:24:41.897952,15.11421225,.00018875,53.2157,9.6255,124.8855,235.2316,0,U,49738,999,25232,.13858909E-2,.23466E-3,0
STARLINK-3155,2021-115R,2026-06-29T12:00:02.998944,15.15540478,.0000754,53.1594,16.8083,91.2539,165.0745,0,U,49739,999,578,.19064E-2,.36449E-3,0
STARLINK-3226,2021-115S,2026-06-29T12:00:02.998944,15.28095400,.0001661,53.1588,6.1297,78.4130,1.7235,0,U,49740,999,563,.43102E-1,.1313246E-1,0
STARLINK-3244,2021-115T,2026-06-29T12:00:02.998944,15.29078347,.0001624,53.1594,6.0988,77.7248,59.7321,0,U,49741,999,558,.38842E-2,.112472E-2,0
STARLINK-3202,2021-115U,2026-06-29T12:14:45.523968,15.09010793,.000152,53.1606,6.9666,61.3433,298.7712,0,U,49742,999,25241,.13207E-2,.20893E-3,0
STARLINK-3239,2021-115V,2026-06-29T12:00:02.998944,15.26765410,.0001556,53.1590,6.1928,74.6165,353.7300,0,U,49743,999,584,.43858E-1,.1280653E-1,0
STARLINK-3231,2021-115W,2026-06-29T12:00:02.998944,15.27919124,.0001162,53.1588,6.0562,70.1106,328.4800,0,U,49744,999,553,.42524E-1,.1286309E-1,0
STARLINK-3241,2021-115X,2026-06-29T12:00:02.998944,15.26955168,.0000845,53.1589,6.2270,75.8001,293.7626,0,U,49745,999,578,.44113E-1,.1297137E-1,0
STARLINK-3233,2021-115Y,2026-06-29T12:36:14.859072,15.08825176,.0001124,53.1613,6.9039,89.0559,271.0561,0,U,49746,999,25241,-.51095E-4,-.1101E-4,0
STARLINK-3247,2021-115Z,2026-06-28T22:01:52.439520,15.08834153,.00011808,53.1609,9.6327,88.3580,271.7546,0,U,49747,999,25232,.92093704E-4,.1178E-4,0
STARLINK-3248,2021-115AA,2026-06-28T19:54:39.119616,15.08802798,.00012797,53.1610,9.6039,87.2166,272.8972,0,U,49748,999,25232,-.15913433E-3,-.2817E-4,0
STARLINK-3250,2021-115AB,2026-06-29T12:00:02.998944,15.29344112,.0000906,53.1605,6.1258,79.8891,261.6907,0,U,49749,999,578,.12743E-2,.36583E-3,0
STARLINK-3236,2021-115AC,2026-06-29T12:00:02.998944,15.28950327,.0001906,53.1618,6.1502,116.9139,114.4893,0,U,49750,999,583,.42069E-2,.121516E-2,0
STARLINK-3229,2021-115AD,2026-06-29T12:30:56.939040,15.08825105,.0001686,53.1609,6.8440,87.9708,272.1476,0,U,49751,999,25242,-.49713E-4,-.1079E-4,0
STARLINK-3209,2021-115AE,2026-06-29T12:00:02.998944,15.20538719,.0001801,53.1597,356.6831,123.5680,106.8842,0,U,49752,999,558,.39705E-2,.88713E-3,0
STARLINK-3200,2021-115AF,2026-06-28T22:33:40.069440,15.08832517,.00013715,53.1613,9.5341,89.3785,270.7364,0,U,49753,999,25233,.4310364E-4,.398E-5,0
STARLINK-3193,2021-115AG,2026-06-29T12:00:02.998944,15.19682077,.0001598,53.1602,356.7453,108.9819,124.7740,0,U,49754,999,584,.26181E-2,.56692E-3,0
STARLINK-3210,2021-115AH,2026-06-29T13:09:25.561728,15.08830338,.0001205,53.1602,6.8457,96.5533,263.5595,0,U,49755,999,25242,-.34029E-5,-.342E-5,0
STARLINK-3207,2021-115AJ,2026-06-29T12:00:02.998944,15.18162570,.0001889,53.1595,356.8230,66.4528,30.9788,0,U,49756,999,578,.42935E-2,.89569E-3,0
